[{"OBJECT_NAME":"YUNYAO-1 48","OBJECT_ID":"2025-059F","EPOCH":"2026-03-09T22:24:05.789376","MEAN_MOTION":15.10574052,"ECCENTRICITY":0.00165064,"INCLINATION":97.6074,"RA_OF_ASC_NODE":250.9983,"ARG_OF_PERICENTER":137.6901,"MEAN_ANOMALY":222.5605,"EPHEMERIS_TYPE":0,"CLASSIFICATION_TYPE":"U","NORAD_CAT_ID":63349,"ELEMENT_SET_NO":999,"REV_AT_EPOCH":5331,"BSTAR":0.00030523847,"MEAN_MOTION_DOT":4.989e-5,"MEAN_MOTION_DDOT":0},{"OBJECT_NAME":"FENGYUN 1C DEB","OBJECT_ID":"1999-025AYA","EPOCH":"2026-03-09T23:00:33.421824","MEAN_MOTION":14.97109165,"ECCENTRICITY":0.00762057,"INCLINATION":99.4912,"RA_OF_ASC_NODE":70.9716,"ARG_OF_PERICENTER":234.2891,"MEAN_ANOMALY":125.1218,"EPHEMERIS_TYPE":0,"CLASSIFICATION_TYPE":"U","NORAD_CAT_ID":30888,"ELEMENT_SET_NO":999,"REV_AT_EPOCH":1220,"BSTAR":0.0012389306,"MEAN_MOTION_DOT":0.0001511,"MEAN_MOTION_DDOT":0}]
